[{"OBJECT_NAME":"SL-14 R/B","OBJECT_ID":"1986-006B","EPOCH":"2026-04-20T07:30:17.255808","MEAN_MOTION":14.86883953,"ECCENTRICITY":0.00776086,"INCLINATION":82.5287,"RA_OF_ASC_NODE":220.5632,"ARG_OF_PERICENTER":133.9838,"MEAN_ANOMALY":226.7814,"EPHEMERIS_TYPE":0,"CLASSIFICATION_TYPE":"U","NORAD_CAT_ID":16496,"ELEMENT_SET_NO":999,"REV_AT_EPOCH":15539,"BSTAR":5.4422581e-5,"MEAN_MOTION_DOT":5.41e-6,"MEAN_MOTION_DDOT":0},{"OBJECT_NAME":"COSMOS 1743","OBJECT_ID":"1986-034A","EPOCH":"2026-04-20T04:45:20.361312","MEAN_MOTION":15.62154776,"ECCENTRICITY":0.00073581,"INCLINATION":82.5324,"RA_OF_ASC_NODE":30.1491,"ARG_OF_PERICENTER":115.843,"MEAN_ANOMALY":244.3587,"EPHEMERIS_TYPE":0,"CLASSIFICATION_TYPE":"U","NORAD_CAT_ID":16719,"ELEMENT_SET_NO":999,"REV_AT_EPOCH":18672,"BSTAR":0.00034008769,"MEAN_MOTION_DOT":0.00029959,"MEAN_MOTION_DDOT":0},{"OBJECT_NAME":"SL-14 R/B","OBJECT_ID":"1986-046B","EPOCH":"2026-04-20T05:31:21.211104","MEAN_MOTION":14.85629811,"ECCENTRICITY":0.00246869,"INCLINATION":82.484,"RA_OF_ASC_NODE":40.9301,"ARG_OF_PERICENTER":90.6257,"MEAN_ANOMALY":269.7788,"EPHEMERIS_TYPE":0,"CLASSIFICATION_TYPE":"U","NORAD_CAT_ID":16792,"ELEMENT_SET_NO":999,"REV_AT_EPOCH":13257,"BSTAR":3.3921496e-5,"MEAN_MOTION_DOT":3.2e-6,"MEAN_MOTION_DDOT":0},{"OBJECT_NAME":"SL-14 R/B","OBJECT_ID":"1986-055B","EPOCH":"2026-04-20T05:09:14.552064","MEAN_MOTION":14.85678292,"ECCENTRICITY":0.001853,"INCLINATION":82.518,"RA_OF_ASC_NODE":87.6291,"ARG_OF_PERICENTER":190.0072,"MEAN_ANOMALY":180.735,"EPHEMERIS_TYPE":0,"CLASSIFICATION_TYPE":"U","NORAD_CAT_ID":16882,"ELEMENT_SET_NO":999,"REV_AT_EPOCH":12553,"BSTAR":3.0793479e-5,"MEAN_MOTION_DOT":2.92e-6,"MEAN_MOTION_DDOT":0},{"OBJECT_NAME":"AJISAI (EGS)","OBJECT_ID":"1986-061A","EPOCH":"2026-04-20T05:49:41.058912","MEAN_MOTION":12.4451587,"ECCENTRICITY":0.0011411,"INCLINATION":50.0108,"RA_OF_ASC_NODE":325.5748,"ARG_OF_PERICENTER":33.689,"MEAN_ANOMALY":74.449,"EPHEMERIS_TYPE":0,"CLASSIFICATION_TYPE":"U","NORAD_CAT_ID":16908,"ELEMENT_SET_NO":999,"REV_AT_EPOCH":47317,"BSTAR":7.669394e-5,"MEAN_MOTION_DOT":-8.7e-7,"MEAN_MOTION_DDOT":0},{"OBJECT_NAME":"SL-14 R/B","OBJECT_ID":"1987-024B","EPOCH":"2026-04-20T05:57:41.969088","MEAN_MOTION":14.86170803,"ECCENTRICITY":0.00195967,"INCLINATION":82.5291,"RA_OF_ASC_NODE":53.6975,"ARG_OF_PERICENTER":120.542,"MEAN_ANOMALY":239.7734,"EPHEMERIS_TYPE":0,"CLASSIFICATION_TYPE":"U","NORAD_CAT_ID":17567,"ELEMENT_SET_NO":999,"REV_AT_EPOCH":9430,"BSTAR":3.4181809e-5,"MEAN_MOTION_DOT":3.26e-6,"MEAN_MOTION_DDOT":0},{"OBJECT_NAME":"COSMOS 1833","OBJECT_ID":"1987-027A","EPOCH":"2026-04-20T01:26:32.392032","MEAN_MOTION":14.13036081,"ECCENTRICITY":0.00224782,"INCLINATION":70.9162,"RA_OF_ASC_NODE":239.0563,"ARG_OF_PERICENTER":150.9085,"MEAN_ANOMALY":209.3294,"EPHEMERIS_TYPE":0,"CLASSIFICATION_TYPE":"U","NORAD_CAT_ID":17589,"ELEMENT_SET_NO":999,"REV_AT_EPOCH":1616,"BSTAR":-0.00011536074,"MEAN_MOTION_DOT":-2.64e-6,"MEAN_MOTION_DDOT":0},{"OBJECT_NAME":"SL-16 R/B","OBJECT_ID":"1987-027B","EPOCH":"2026-04-20T04:42:06.088320","MEAN_MOTION":14.17168703,"ECCENTRICITY":0.00033369,"INCLINATION":71.0031,"RA_OF_ASC_NODE":189.0301,"ARG_OF_PERICENTER":38.0103,"MEAN_ANOMALY":322.1255,"EPHEMERIS_TYPE":0,"CLASSIFICATION_TYPE":"U","NORAD_CAT_ID":17590,"ELEMENT_SET_NO":999,"REV_AT_EPOCH":2122,"BSTAR":5.2357843e-5,"MEAN_MOTION_DOT":5.8e-7,"MEAN_MOTION_DDOT":0},{"OBJECT_NAME":"SL-14 R/B","OBJECT_ID":"1987-038B","EPOCH":"2026-04-20T03:07:05.358432","MEAN_MOTION":14.85406075,"ECCENTRICITY":0.00199667,"INCLINATION":82.4993,"RA_OF_ASC_NODE":257.7562,"ARG_OF_PERICENTER":31.6908,"MEAN_ANOMALY":328.5505,"EPHEMERIS_TYPE":0,"CLASSIFICATION_TYPE":"U","NORAD_CAT_ID":17912,"ELEMENT_SET_NO":999,"REV_AT_EPOCH":8538,"BSTAR":3.0991951e-5,"MEAN_MOTION_DOT":2.92e-6,"MEAN_MOTION_DDOT":0},{"OBJECT_NAME":"COSMOS 1844","OBJECT_ID":"1987-041A","EPOCH":"2026-04-20T06:18:49.100256","MEAN_MOTION":14.14563159,"ECCENTRICITY":0.00326464,"INCLINATION":70.8989,"RA_OF_ASC_NODE":306.4883,"ARG_OF_PERICENTER":316.8183,"MEAN_ANOMALY":43.0379,"EPHEMERIS_TYPE":0,"CLASSIFICATION_TYPE":"U","NORAD_CAT_ID":17973,"ELEMENT_SET_NO":999,"REV_AT_EPOCH":946,"BSTAR":-0.00011439925,"MEAN_MOTION_DOT":-2.69e-6,"MEAN_MOTION_DDOT":0},{"OBJECT_NAME":"SL-14 R/B","OBJECT_ID":"1987-055B","EPOCH":"2026-04-19T19:55:22.032768","MEAN_MOTION":14.85665048,"ECCENTRICITY":0.00193593,"INCLINATION":82.4972,"RA_OF_ASC_NODE":310.2534,"ARG_OF_PERICENTER":235.2506,"MEAN_ANOMALY":124.6888,"EPHEMERIS_TYPE":0,"CLASSIFICATION_TYPE":"U","NORAD_CAT_ID":18153,"ELEMENT_SET_NO":999,"REV_AT_EPOCH":7604,"BSTAR":2.9393983e-5,"MEAN_MOTION_DOT":2.8e-6,"MEAN_MOTION_DDOT":0},{"OBJECT_NAME":"COSMOS 1867","OBJECT_ID":"1987-060A","EPOCH":"2026-04-20T05:14:28.266144","MEAN_MOTION":14.31509095,"ECCENTRICITY":0.00152722,"INCLINATION":65.0107,"RA_OF_ASC_NODE":190.4021,"ARG_OF_PERICENTER":280.7913,"MEAN_ANOMALY":79.1452,"EPHEMERIS_TYPE":0,"CLASSIFICATION_TYPE":"U","NORAD_CAT_ID":18187,"ELEMENT_SET_NO":999,"REV_AT_EPOCH":2588,"BSTAR":2.6841353e-5,"MEAN_MOTION_DOT":-2.9e-7,"MEAN_MOTION_DDOT":0},{"OBJECT_NAME":"SL-14 R/B","OBJECT_ID":"1988-001B","EPOCH":"2026-04-20T02:20:43.713024","MEAN_MOTION":14.8556717,"ECCENTRICITY":0.00196303,"INCLINATION":82.5133,"RA_OF_ASC_NODE":156.4243,"ARG_OF_PERICENTER":100.8135,"MEAN_ANOMALY":259.5292,"EPHEMERIS_TYPE":0,"CLASSIFICATION_TYPE":"U","NORAD_CAT_ID":18749,"ELEMENT_SET_NO":999,"REV_AT_EPOCH":4817,"BSTAR":2.7962388e-5,"MEAN_MOTION_DOT":2.67e-6,"MEAN_MOTION_DDOT":0},{"OBJECT_NAME":"COSMOS 1933","OBJECT_ID":"1988-020A","EPOCH":"2026-04-20T05:56:29.714496","MEAN_MOTION":15.18353839,"ECCENTRICITY":0.00052495,"INCLINATION":82.5153,"RA_OF_ASC_NODE":209.7877,"ARG_OF_PERICENTER":67.3484,"MEAN_ANOMALY":292.8304,"EPHEMERIS_TYPE":0,"CLASSIFICATION_TYPE":"U","NORAD_CAT_ID":18958,"ELEMENT_SET_NO":999,"REV_AT_EPOCH":5653,"BSTAR":0.0001156493,"MEAN_MOTION_DOT":2.406e-5,"MEAN_MOTION_DDOT":0},{"OBJECT_NAME":"SL-3 R/B","OBJECT_ID":"1988-032B","EPOCH":"2026-04-20T04:51:44.550144","MEAN_MOTION":15.20337117,"ECCENTRICITY":0.00276923,"INCLINATION":97.5238,"RA_OF_ASC_NODE":93.3357,"ARG_OF_PERICENTER":89.4319,"MEAN_ANOMALY":271.0089,"EPHEMERIS_TYPE":0,"CLASSIFICATION_TYPE":"U","NORAD_CAT_ID":19046,"ELEMENT_SET_NO":999,"REV_AT_EPOCH":5841,"BSTAR":0.0001514025,"MEAN_MOTION_DOT":3.254e-5,"MEAN_MOTION_DDOT":0},{"OBJECT_NAME":"SL-16 R/B","OBJECT_ID":"1988-039B","EPOCH":"2026-04-20T01:26:19.497696","MEAN_MOTION":14.19622655,"ECCENTRICITY":0.00240788,"INCLINATION":71.0158,"RA_OF_ASC_NODE":341.0723,"ARG_OF_PERICENTER":275.7958,"MEAN_ANOMALY":84.0423,"EPHEMERIS_TYPE":0,"CLASSIFICATION_TYPE":"U","NORAD_CAT_ID":19120,"ELEMENT_SET_NO":999,"REV_AT_EPOCH":96425,"BSTAR":-2.2704165e-5,"MEAN_MOTION_DOT":-9.6e-7,"MEAN_MOTION_DDOT":0},{"OBJECT_NAME":"COSMOS 1953","OBJECT_ID":"1988-050A","EPOCH":"2026-04-19T22:11:58.563168","MEAN_MOTION":15.29135944,"ECCENTRICITY":0.0010124,"INCLINATION":82.5045,"RA_OF_ASC_NODE":116.7455,"ARG_OF_PERICENTER":349.2314,"MEAN_ANOMALY":10.8707,"EPHEMERIS_TYPE":0,"CLASSIFICATION_TYPE":"U","NORAD_CAT_ID":19210,"ELEMENT_SET_NO":999,"REV_AT_EPOCH":4408,"BSTAR":0.0002385,"MEAN_MOTION_DOT":6.785e-5,"MEAN_MOTION_DDOT":0}]
