SL-14 R/B               
1 16496U 86006B   26110.31269972  .00000541  00000+0  54423-4 0  9996
2 16496  82.5287 220.5632 0077608 133.9838 226.7814 14.86883953155391
COSMOS 1743             
1 16719U 86034A   26110.19815233  .00029959  00000+0  34009-3 0  9999
2 16719  82.5324  30.1491 0007358 115.8430 244.3587 15.62154776186724
SL-14 R/B               
1 16792U 86046B   26110.23010661  .00000320  00000+0  33921-4 0  9994
2 16792  82.4840  40.9301 0024686  90.6257 269.7788 14.85629811132575
SL-14 R/B               
1 16882U 86055B   26110.21475176  .00000292  00000+0  30793-4 0  9990
2 16882  82.5180  87.6291 0018530 190.0072 180.7350 14.85678292125532
AJISAI (EGS)            
1 16908U 86061A   26110.24283633 -.00000087  00000+0  76694-4 0  9997
2 16908  50.0108 325.5748 0011411  33.6890  74.4490 12.44515870473178
SL-14 R/B               
1 17567U 87024B   26110.24840242  .00000326  00000+0  34182-4 0  9995
2 17567  82.5291  53.6975 0019596 120.5420 239.7734 14.86170803 94303
COSMOS 1833             
1 17589U 87027A   26110.06009713 -.00000264  00000+0 -11536-3 0  9992
2 17589  70.9162 239.0563 0022478 150.9085 209.3294 14.13036081 16166
SL-16 R/B               
1 17590U 87027B   26110.19590380  .00000058  00000+0  52358-4 0  9990
2 17590  71.0031 189.0301 0003336  38.0103 322.1255 14.17168703 21223
SL-14 R/B               
1 17912U 87038B   26110.12992313  .00000292  00000+0  30992-4 0  9995
2 17912  82.4993 257.7562 0019966  31.6908 328.5505 14.85406075 85381
COSMOS 1844             
1 17973U 87041A   26110.26306829 -.00000269  00000+0 -11440-3 0  9994
2 17973  70.8989 306.4883 0032646 316.8183  43.0379 14.14563159  9467
SL-14 R/B               
1 18153U 87055B   26109.83011612  .00000280  00000+0  29394-4 0  9993
2 18153  82.4972 310.2534 0019359 235.2506 124.6888 14.85665048 76041
COSMOS 1867             
1 18187U 87060A   26110.21838271 -.00000029  00000+0  26841-4 0  9994
2 18187  65.0107 190.4021 0015272 280.7913  79.1452 14.31509095 25888
SL-14 R/B               
1 18749U 88001B   26110.09772816  .00000267  00000+0  27962-4 0  9990
2 18749  82.5133 156.4243 0019630 100.8135 259.5292 14.85567170 48173
COSMOS 1933             
1 18958U 88020A   26110.24756614  .00002406  00000+0  11565-3 0  9996
2 18958  82.5153 209.7877 0005249  67.3484 292.8304 15.18353839 56532
SL-3 R/B                
1 19046U 88032B   26110.20259896  .00003254  00000+0  15140-3 0  9999
2 19046  97.5238  93.3357 0027692  89.4319 271.0089 15.20337117 58411
SL-16 R/B               
1 19120U 88039B   26110.05994789 -.00000096  00000+0 -22704-4 0  9997
2 19120  71.0158 341.0723 0024078 275.7958  84.0423 14.19622655964259
COSMOS 1953             
1 19210U 88050A   26109.92498337  .00006785  00000+0  23850-3 0  9993
2 19210  82.5045 116.7455 0010124 349.2314  10.8707 15.29135944 44084
